{
    "links": {
        "self": "http://www.neowsapp.com/rest/v1/neo/3257026?api_key=iIulBulltgU6a56xZRHN4H3l9WmuAYTsLGpBGhQ2"
    },
    "id": "3257026",
    "neo_reference_id": "3257026",
    "name": "(2004 TE18)",
    "designation": "2004 TE18",
    "nasa_jpl_url": "http://ssd.jpl.nasa.gov/sbdb.cgi?sstr=3257026",
    "absolute_magnitude_h": 21.2,
    "estimated_diameter": {
        "kilometers": {
            "estimated_diameter_min": 0.1529519353,
            "estimated_diameter_max": 0.3420109247
        },
        "meters": {
            "estimated_diameter_min": 152.9519353442,
            "estimated_diameter_max": 342.0109247198
        },
        "miles": {
            "estimated_diameter_min": 0.095039897,
            "estimated_diameter_max": 0.2125156703
        },
        "feet": {
            "estimated_diameter_min": 501.8108275547,
            "estimated_diameter_max": 1122.0831222578
        }
    },
    "is_potentially_hazardous_asteroid": false,
    "close_approach_data": [
        {
            "close_approach_date": "2004-09-29",
            "close_approach_date_full": "2004-Sep-29 07:32",
            "epoch_date_close_approach": 1096443120000,
            "relative_velocity": {
                "kilometers_per_second": "4.7629136218",
                "kilometers_per_hour": "17146.4890386475",
                "miles_per_hour": "10654.1614807085"
            },
            "miss_distance": {
                "astronomical": "0.2650760776",
                "lunar": "103.1145941864",
                "kilometers": "39654816.596914712",
                "miles": "24640360.4446265456"
            },
            "orbiting_body": "Earth"
        }
    ],
    "orbital_data": {
        "orbit_id": "12",
        "orbit_determination_date": "2017-04-06 09:11:59",
        "first_observation_date": "2004-10-14",
        "last_observation_date": "2004-11-20",
        "data_arc_in_days": 37,
        "observations_used": 26,
        "orbit_uncertainty": "6",
        "minimum_orbit_intersection": ".266608",
        "jupiter_tisserand_invariant": "3.611",
        "epoch_osculation": "2459000.5",
        "eccentricity": ".4079378197614679",
        "semi_major_axis": "2.114041690040568",
        "inclination": "8.983945185530683",
        "ascending_node_longitude": "35.11461534032768",
        "orbital_period": "1122.712991788258",
        "perihelion_distance": "1.25164413212057",
        "perihelion_argument": "324.7977044272507",
        "aphelion_distance": "2.976439247960567",
        "perihelion_time": "2458882.630574861842",
        "mean_anomaly": "37.79504945618338",
        "mean_motion": ".3206518519275277",
        "equinox": "J2000",
        "orbit_class": {
            "orbit_class_type": "AMO",
            "orbit_class_description": "Near-Earth asteroid orbits similar to that of 1221 Amor",
            "orbit_class_range": "1.017 AU < q (perihelion) < 1.3 AU"
        }
    },
    "is_sentry_object": false
}